{"type": "FeatureCollection", "features": [ {"type": "Feature", "properties": {"norad_id": 40664, "name": "SKY MEXICO-1", "group": "intelsat", "lat": 0.00012161280756514942, "lon": -4.4451458810841995, "alt_km": 35782.248290018244, "timestamp": "2025-12-24T22:42:21.690140+00:00", "meta": {"OBJECT_NAME": "SKY MEXICO-1", "OBJECT_ID": "2015-026B", "EPOCH": "2025-12-24T07:10:03.735840", "MEAN_MOTION": 1.00270371, "ECCENTRICITY": 0.00024911, "INCLINATION": 0.0084, "RA_OF_ASC_NODE": 342.1449, "ARG_OF_PERICENTER": 307.4864, "MEAN_ANOMALY": 192.1944, "EPHEMERIS_TYPE": 0, "CLASSIFICATION_TYPE": "U", "NORAD_CAT_ID": 40664, "ELEMENT_SET_NO": 999, "REV_AT_EPOCH": 3870, "BSTAR": 0, "MEAN_MOTION_DOT": -2.13e-06, "MEAN_MOTION_DDOT": 0}, "tle": {"line1": "1 40664U 15026B   25358.29865435 -.00000213  00000+0  00000+0 0  9994", "line2": "2 40664   0.0084 342.1449 0002491 307.4864 192.1944  1.00270371 38708"}}, "geometry": {"type": "Point", "coordinates": [-4.4451458810841995, 0.00012161280756514942]}}, {"type": "Feature", "properties": {"norad_id": 40874, "name": "INTELSAT 34 (IS-34)", "group": "intelsat", "lat": 0.014113118172347023, "lon": 18.795554707586607, "alt_km": 35788.904902589056, "timestamp": "2025-12-24T22:42:21.690151+00:00", "meta": {"OBJECT_NAME": "INTELSAT 34 (IS-34)", "OBJECT_ID": "2015-039A", "EPOCH": "2025-12-24T05:59:16.012896", "MEAN_MOTION": 1.00270249, "ECCENTRICITY": 6.867e-05, "INCLINATION": 0.0128, "RA_OF_ASC_NODE": 316.008, "ARG_OF_PERICENTER": 206.3361, "MEAN_ANOMALY": 325.0065, "EPHEMERIS_TYPE": 0, "CLASSIFICATION_TYPE": "U", "NORAD_CAT_ID": 40874, "ELEMENT_SET_NO": 999, "REV_AT_EPOCH": 3787, "BSTAR": 0, "MEAN_MOTION_DOT": -2.64e-06, "MEAN_MOTION_DDOT": 0}, "tle": {"line1": "1 40874U 15039A   25358.24949089 -.00000264  00000+0  00000+0 0  9990", "line2": "2 40874   0.0128 316.0080 0000686 206.3361 325.0065  1.00270249 37876"}}, "geometry": {"type": "Point", "coordinates": [18.795554707586607, 0.014113118172347023]}}, {"type": "Feature", "properties": {"norad_id": 41581, "name": "INTELSAT 31 (IS-31)", "group": "intelsat", "lat": 0.004941780613082781, "lon": -20.755652018610995, "alt_km": 35792.30388741545, "timestamp": "2025-12-24T22:42:21.690163+00:00", "meta": {"OBJECT_NAME": "INTELSAT 31 (IS-31)", "OBJECT_ID": "2016-035A", "EPOCH": "2025-12-23T19:31:44.703840", "MEAN_MOTION": 1.00269658, "ECCENTRICITY": 0.0001926, "INCLINATION": 0.0283, "RA_OF_ASC_NODE": 262.055, "ARG_OF_PERICENTER": 303.365, "MEAN_ANOMALY": 85.0534, "EPHEMERIS_TYPE": 0, "CLASSIFICATION_TYPE": "U", "NORAD_CAT_ID": 41581, "ELEMENT_SET_NO": 999, "REV_AT_EPOCH": 3492, "BSTAR": 0, "MEAN_MOTION_DOT": -1.29e-06, "MEAN_MOTION_DDOT": 0}, "tle": {"line1": "1 41581U 16035A   25357.81371185 -.00000129  00000+0  00000+0 0  9991", "line2": "2 41581   0.0283 262.0550 0001926 303.3650  85.0534  1.00269658 34922"}}, "geometry": {"type": "Point", "coordinates": [-20.755652018610995, 0.004941780613082781]}}, {"type": "Feature", "properties": {"norad_id": 41747, "name": "INTELSAT 36 (IS-36)", "group": "intelsat", "lat": 0.024012113501886513, "lon": 142.78971158770543, "alt_km": 35791.05202804288, "timestamp": "2025-12-24T22:42:21.690175+00:00", "meta": {"OBJECT_NAME": "INTELSAT 36 (IS-36)", "OBJECT_ID": "2016-053A", "EPOCH": "2025-12-24T04:51:52.467840", "MEAN_MOTION": 1.00271067, "ECCENTRICITY": 0.00011393, "INCLINATION": 0.0107, "RA_OF_ASC_NODE": 9.3936, "ARG_OF_PERICENTER": 315.6911, "MEAN_ANOMALY": 269.3582, "EPHEMERIS_TYPE": 0, "CLASSIFICATION_TYPE": "U", "NORAD_CAT_ID": 41747, "ELEMENT_SET_NO": 999, "REV_AT_EPOCH": 3419, "BSTAR": 0, "MEAN_MOTION_DOT": -3e-08, "MEAN_MOTION_DDOT": 0}, "tle": {"line1": "1 41747U 16053A   25358.20269060 -.00000003  00000+0  00000+0 0  9998", "line2": "2 41747   0.0107   9.3936 0001139 315.6911 269.3582  1.00271067 34199"}}, "geometry": {"type": "Point", "coordinates": [142.78971158770543, 0.024012113501886513]}}, {"type": "Feature", "properties": {"norad_id": 41945, "name": "INTELSAT 32E (IS-32E)", "group": "intelsat", "lat": -0.010896160626548737, "lon": 31.111651209529086, "alt_km": 35786.30700786799, "timestamp": "2025-12-24T22:42:21.690186+00:00", "meta": {"OBJECT_NAME": "INTELSAT 32E (IS-32E)", "OBJECT_ID": "2017-007B", "EPOCH": "2025-12-23T16:21:03.290976", "MEAN_MOTION": 1.0026875, "ECCENTRICITY": 2.529e-05, "INCLINATION": 0.0225, "RA_OF_ASC_NODE": 67.8207, "ARG_OF_PERICENTER": 7.8321, "MEAN_ANOMALY": 218.9086, "EPHEMERIS_TYPE": 0, "CLASSIFICATION_TYPE": "U", "NORAD_CAT_ID": 41945, "ELEMENT_SET_NO": 999, "REV_AT_EPOCH": 3246, "BSTAR": 0, "MEAN_MOTION_DOT": -2.48e-06, "MEAN_MOTION_DDOT": 0}, "tle": {"line1": "1 41945U 17007B   25357.68128809 -.00000248  00000+0  00000+0 0  9995", "line2": "2 41945   0.0225  67.8207 0000252   7.8321 218.9086  1.00268750 32462"}}, "geometry": {"type": "Point", "coordinates": [31.111651209529086, -0.010896160626548737]}}, {"type": "Feature", "properties": {"norad_id": 42818, "name": "INTELSAT 35E (IS-35E)", "group": "intelsat", "lat": 0.012852918314295516, "lon": 39.794246968230674, "alt_km": 35791.897428440316, "timestamp": "2025-12-24T22:42:21.690198+00:00", "meta": {"OBJECT_NAME": "INTELSAT 35E (IS-35E)", "OBJECT_ID": "2017-041A", "EPOCH": "2025-12-24T04:16:38.864640", "MEAN_MOTION": 1.00266954, "ECCENTRICITY": 0.0002055, "INCLINATION": 0.0217, "RA_OF_ASC_NODE": 27.8846, "ARG_OF_PERICENTER": 251.5822, "MEAN_ANOMALY": 203.1418, "EPHEMERIS_TYPE": 0, "CLASSIFICATION_TYPE": "U", "NORAD_CAT_ID": 42818, "ELEMENT_SET_NO": 999, "REV_AT_EPOCH": 3106, "BSTAR": 0, "MEAN_MOTION_DOT": 0, "MEAN_MOTION_DDOT": 0}, "tle": {"line1": "1 42818U 17041A   25358.17822760  .00000000  00000+0  00000+0 0  9990", "line2": "2 42818   0.0217  27.8846 0002055 251.5822 203.1418  1.00266954 31069"}}, "geometry": {"type": "Point", "coordinates": [39.794246968230674, 0.012852918314295516]}}, {"type": "Feature", "properties": {"norad_id": 42950, "name": "INTELSAT 37E (IS-37E)", "group": "intelsat", "lat": 0.0271692024564844, "lon": 56.31241952939739, "alt_km": 35798.29997634455, "timestamp": "2025-12-24T22:42:21.690209+00:00", "meta": {"OBJECT_NAME": "INTELSAT 37E (IS-37E)", "OBJECT_ID": "2017-059A", "EPOCH": "2025-12-24T06:09:59.984928", "MEAN_MOTION": 1.00269955, "ECCENTRICITY": 0.00030749, "INCLINATION": 0.0204, "RA_OF_ASC_NODE": 18.7977, "ARG_OF_PERICENTER": 243.4842, "MEAN_ANOMALY": 265.2563, "EPHEMERIS_TYPE": 0, "CLASSIFICATION_TYPE": "U", "NORAD_CAT_ID": 42950, "ELEMENT_SET_NO": 999, "REV_AT_EPOCH": 3031, "BSTAR": 0, "MEAN_MOTION_DOT": 0, "MEAN_MOTION_DDOT": 0}, "tle": {"line1": "1 42950U 17059A   25358.25694427  .00000000  00000+0  00000+0 0  9992", "line2": "2 42950   0.0204  18.7977 0003074 243.4842 265.2563  1.00269955 30311"}}, "geometry": {"type": "Point", "coordinates": [56.31241952939739, 0.0271692024564844]}}, {"type": "Feature", "properties": {"norad_id": 43632, "name": "AZERSPACE 2 (IS-38)", "group": "intelsat", "lat": 0.03582476736823916, "lon": 119.39450858592188, "alt_km": 35791.289607264465, "timestamp": "2025-12-24T22:42:21.690220+00:00", "meta": {"OBJECT_NAME": "AZERSPACE 2 (IS-38)", "OBJECT_ID": "2018-074A", "EPOCH": "2025-12-24T04:45:15.602400", "MEAN_MOTION": 1.002706, "ECCENTRICITY": 0.00012967, "INCLINATION": 0.0172, "RA_OF_ASC_NODE": 4.4409, "ARG_OF_PERICENTER": 269.8607, "MEAN_ANOMALY": 295.0957, "EPHEMERIS_TYPE": 0, "CLASSIFICATION_TYPE": "U", "NORAD_CAT_ID": 43632, "ELEMENT_SET_NO": 999, "REV_AT_EPOCH": 2669, "BSTAR": 0, "MEAN_MOTION_DOT": 1.57e-06, "MEAN_MOTION_DDOT": 0}, "tle": {"line1": "1 43632U 18074A   25358.19809725  .00000157  00000+0  00000+0 0  9993", "line2": "2 43632   0.0172   4.4409 0001296 269.8607 295.0957  1.00270600 26693"}}, "geometry": {"type": "Point", "coordinates": [119.39450858592188, 0.03582476736823916]}}, {"type": "Feature", "properties": {"norad_id": 43633, "name": "HORIZONS-3E", "group": "intelsat", "lat": 0.006370459879011649, "lon": -116.72256838389478, "alt_km": 35785.643590027874, "timestamp": "2025-12-24T22:42:21.690232+00:00", "meta": {"OBJECT_NAME": "HORIZONS-3E", "OBJECT_ID": "2018-074B", "EPOCH": "2025-12-24T03:06:38.620224", "MEAN_MOTION": 1.00269598, "ECCENTRICITY": 5.64e-05, "INCLINATION": 0.0124, "RA_OF_ASC_NODE": 212.287, "ARG_OF_PERICENTER": 95.6715, "MEAN_ANOMALY": 0.6032, "EPHEMERIS_TYPE": 0, "CLASSIFICATION_TYPE": "U", "NORAD_CAT_ID": 43633, "ELEMENT_SET_NO": 999, "REV_AT_EPOCH": 2658, "BSTAR": 0, "MEAN_MOTION_DOT": 0, "MEAN_MOTION_DDOT": 0}, "tle": {"line1": "1 43633U 18074B   25358.12961366  .00000000  00000+0  00000+0 0  9994", "line2": "2 43633   0.0124 212.2870 0000564  95.6715   0.6032  1.00269598 26580"}}, "geometry": {"type": "Point", "coordinates": [-116.72256838389478, 0.006370459879011649]}}, {"type": "Feature", "properties": {"norad_id": 44333, "name": "AT&T T-16", "group": "intelsat", "lat": -0.03578029136570416, "lon": -26.58128195780598, "alt_km": 35789.78680081146, "timestamp": "2025-12-24T22:42:21.690243+00:00", "meta": {"OBJECT_NAME": "AT&T T-16", "OBJECT_ID": "2019-034A", "EPOCH": "2025-12-23T22:55:25.672800", "MEAN_MOTION": 1.00268558, "ECCENTRICITY": 6.686e-05, "INCLINATION": 0.0228, "RA_OF_ASC_NODE": 67.9518, "ARG_OF_PERICENTER": 76.4171, "MEAN_ANOMALY": 191.3588, "EPHEMERIS_TYPE": 0, "CLASSIFICATION_TYPE": "U", "NORAD_CAT_ID": 44333, "ELEMENT_SET_NO": 999, "REV_AT_EPOCH": 2387, "BSTAR": 0, "MEAN_MOTION_DOT": -9.4e-07, "MEAN_MOTION_DDOT": 0}, "tle": {"line1": "1 44333U 19034A   25357.95515825 -.00000094  00000+0  00000+0 0  9998", "line2": "2 44333   0.0228  67.9518 0000668  76.4171 191.3588  1.00268558 23873"}}, "geometry": {"type": "Point", "coordinates": [-26.58128195780598, -0.03578029136570416]}}]}